start=new Date('2022-02-28T00:00:00.000Z').valueOf();
sats=[{"PERIAPSIS":"546.090","OBJECT_TYPE":"PAYLOAD","NORAD_CAT_ID":"46673","MEAN_ELEMENT_THEORY":"SGP4","REF_FRAME":"TEME","RA_OF_ASC_NODE":"19.3365","TLE_LINE2":"2 46673  53.0564  19.3365 0001671  58.8947 301.2206 15.06389051 75233","OBJECT_ID":"2020-073D","EPOCH":"2022-02-27T21:10:44.010048","BSTAR":"0.00000823460000","MEAN_MOTION_DDOT":"0.0000000000000","APOAPSIS":"548.404","MEAN_MOTION_DOT":"-0.00000159","ARG_OF_PERICENTER":"58.8947","LAUNCH_DATE":"2020-10-18","FILE":"3331200","INCLINATION":"53.0564","DECAY_DATE":null,"REV_AT_EPOCH":"7523","GP_ID":"197286115","SEMIMAJOR_AXIS":"6925.382","ELEMENT_SET_NO":"999","PERIOD":"95.593","TLE_LINE1":"1 46673U 20073D   22058.88245382 -.00000159  00000-0  82346-5 0  9999","ECCENTRICITY":"0.00016710","CENTER_NAME":"EARTH","MEAN_ANOMALY":"301.2206","TIME_SYSTEM":"UTC","CLASSIFICATION_TYPE":"U","COUNTRY_CODE":"US","SITE":"AFETR","OBJECT_NAME":"STARLINK-1717","MEAN_MOTION":"15.06389051","RCS_SIZE":"LARGE","EPHEMERIS_TYPE":"0"},{"MEAN_MOTION_DOT":"0.00003312","ARG_OF_PERICENTER":"60.5235","LAUNCH_DATE":"2020-10-18","INCLINATION":"53.0556","DECAY_DATE":null,"FILE":"3331200","BSTAR":"0.00024113000000","OBJECT_ID":"2020-073E","EPOCH":"2022-02-27T20:55:30.217728","APOAPSIS":"548.270","MEAN_MOTION_DDOT":"0.0000000000000","MEAN_ELEMENT_THEORY":"SGP4","NORAD_CAT_ID":"46674","TLE_LINE2":"2 46674  53.0556   4.3818 0001534  60.5235 299.5907 15.06401807 75444","RA_OF_ASC_NODE":"4.3818","REF_FRAME":"TEME","OBJECT_TYPE":"PAYLOAD","PERIAPSIS":"546.146","MEAN_MOTION":"15.06401807","OBJECT_NAME":"STARLINK-1718","RCS_SIZE":"LARGE","SITE":"AFETR","EPHEMERIS_TYPE":"0","TIME_SYSTEM":"UTC","COUNTRY_CODE":"US","CLASSIFICATION_TYPE":"U","PERIOD":"95.592","MEAN_ANOMALY":"299.5907","TLE_LINE1":"1 46674U 20073E   22058.87187752  .00003312  00000-0  24113-3 0  9994","ECCENTRICITY":"0.00015340","CENTER_NAME":"EARTH","REV_AT_EPOCH":"7544","GP_ID":"197285364","SEMIMAJOR_AXIS":"6925.343","ELEMENT_SET_NO":"999"},{"PERIOD":"95.592","MEAN_ANOMALY":"295.1429","CENTER_NAME":"EARTH","ECCENTRICITY":"0.00017950","TLE_LINE1":"1 46675U 20073F   22058.86818476 -.00000583  00000-0 -20203-4 0  9994","GP_ID":"197285614","SEMIMAJOR_AXIS":"6925.343","REV_AT_EPOCH":"7544","ELEMENT_SET_NO":"999","RCS_SIZE":"LARGE","MEAN_MOTION":"15.06401661","OBJECT_NAME":"STARLINK-1720","SITE":"AFETR","EPHEMERIS_TYPE":"0","TIME_SYSTEM":"UTC","COUNTRY_CODE":"US","CLASSIFICATION_TYPE":"U","MEAN_ELEMENT_THEORY":"SGP4","NORAD_CAT_ID":"46675","TLE_LINE2":"2 46675  53.0556   4.4022 0001795  64.9747 295.1429 15.06401661 75447","RA_OF_ASC_NODE":"4.4022","REF_FRAME":"TEME","OBJECT_TYPE":"PAYLOAD","PERIAPSIS":"545.965","LAUNCH_DATE":"2020-10-18","ARG_OF_PERICENTER":"64.9747","MEAN_MOTION_DOT":"-0.00000583","DECAY_DATE":null,"INCLINATION":"53.0556","FILE":"3331200","BSTAR":"-0.00002020300000","OBJECT_ID":"2020-073F","EPOCH":"2022-02-27T20:50:11.163264","APOAPSIS":"548.452","MEAN_MOTION_DDOT":"0.0000000000000"},{"APOAPSIS":"548.560","MEAN_MOTION_DDOT":"0.0000000000000","BSTAR":"-0.00001128600000","EPOCH":"2022-02-27T20:44:53.684736","OBJECT_ID":"2020-073H","DECAY_DATE":null,"INCLINATION":"53.0557","FILE":"3331200","ARG_OF_PERICENTER":"56.2070","LAUNCH_DATE":"2020-10-18","MEAN_MOTION_DOT":"-0.00000450","OBJECT_TYPE":"PAYLOAD","PERIAPSIS":"545.905","TLE_LINE2":"2 46677  53.0557   4.4101 0001917  56.2070 303.9102 15.06393850 75443","RA_OF_ASC_NODE":"4.4101","REF_FRAME":"TEME","MEAN_ELEMENT_THEORY":"SGP4","NORAD_CAT_ID":"46677","COUNTRY_CODE":"US","CLASSIFICATION_TYPE":"U","TIME_SYSTEM":"UTC","EPHEMERIS_TYPE":"0","RCS_SIZE":"LARGE","MEAN_MOTION":"15.06393850","OBJECT_NAME":"STARLINK-1766","SITE":"AFETR","ELEMENT_SET_NO":"999","GP_ID":"197285865","SEMIMAJOR_AXIS":"6925.367","REV_AT_EPOCH":"7544","MEAN_ANOMALY":"303.9102","ECCENTRICITY":"0.00019170","CENTER_NAME":"EARTH","TLE_LINE1":"1 46677U 20073H   22058.86451024 -.00000450  00000-0 -11286-4 0  9992","PERIOD":"95.593"},{"REV_AT_EPOCH":"7562","GP_ID":"197234886","SEMIMAJOR_AXIS":"6925.340","ELEMENT_SET_NO":"999","PERIOD":"95.592","TLE_LINE1":"1 46679U 20073K   22058.20656308  .00001764  00000-0  13732-3 0  9998","CENTER_NAME":"EARTH","ECCENTRICITY":"0.00018460","MEAN_ANOMALY":"297.1187","TIME_SYSTEM":"UTC","CLASSIFICATION_TYPE":"U","COUNTRY_CODE":"US","SITE":"AFETR","OBJECT_NAME":"STARLINK-1773","MEAN_MOTION":"15.06402669","RCS_SIZE":"LARGE","EPHEMERIS_TYPE":"0","PERIAPSIS":"545.927","OBJECT_TYPE":"PAYLOAD","NORAD_CAT_ID":"46679","MEAN_ELEMENT_THEORY":"SGP4","REF_FRAME":"TEME","RA_OF_ASC_NODE":"347.3603","TLE_LINE2":"2 46679  53.0586 347.3603 0001846  62.9990 297.1187 15.06402669 75625","OBJECT_ID":"2020-073K","EPOCH":"2022-02-27T04:57:27.050112","BSTAR":"0.00013732000000","MEAN_MOTION_DDOT":"0.0000000000000","APOAPSIS":"548.484","MEAN_MOTION_DOT":"0.00001764","LAUNCH_DATE":"2020-10-18","ARG_OF_PERICENTER":"62.9990","FILE":"3329903","INCLINATION":"53.0586","DECAY_DATE":null},{"MEAN_ANOMALY":"301.6091","CENTER_NAME":"EARTH","ECCENTRICITY":"0.00016100","TLE_LINE1":"1 46680U 20073L   22058.87233177  .00005359  00000-0  37827-3 0  9993","PERIOD":"95.591","ELEMENT_SET_NO":"999","SEMIMAJOR_AXIS":"6925.314","GP_ID":"197284864","REV_AT_EPOCH":"7523","EPHEMERIS_TYPE":"0","RCS_SIZE":"LARGE","OBJECT_NAME":"STARLINK-1774","MEAN_MOTION":"15.06411410","SITE":"AFETR","COUNTRY_CODE":"US","CLASSIFICATION_TYPE":"U","TIME_SYSTEM":"UTC","TLE_LINE2":"2 46680  53.0567  19.3676 0001610  58.5055 301.6091 15.06411410 75230","REF_FRAME":"TEME","RA_OF_ASC_NODE":"19.3676","MEAN_ELEMENT_THEORY":"SGP4","NORAD_CAT_ID":"46680","OBJECT_TYPE":"PAYLOAD","PERIAPSIS":"546.064","DECAY_DATE":null,"INCLINATION":"53.0567","FILE":"3331200","ARG_OF_PERICENTER":"58.5055","LAUNCH_DATE":"2020-10-18","MEAN_MOTION_DOT":"0.00005359","APOAPSIS":"548.294","MEAN_MOTION_DDOT":"0.0000000000000","BSTAR":"0.00037827000000","OBJECT_ID":"2020-073L","EPOCH":"2022-02-27T20:56:09.464928"},{"ELEMENT_SET_NO":"999","REV_AT_EPOCH":"7523","GP_ID":"197285114","SEMIMAJOR_AXIS":"6925.360","MEAN_ANOMALY":"307.7107","TLE_LINE1":"1 46681U 20073M   22058.90920101  .00000450  00000-0  49148-4 0  9995","ECCENTRICITY":"0.00017220","CENTER_NAME":"EARTH","PERIOD":"95.592","COUNTRY_CODE":"US","CLASSIFICATION_TYPE":"U","TIME_SYSTEM":"UTC","EPHEMERIS_TYPE":"0","MEAN_MOTION":"15.06396307","OBJECT_NAME":"STARLINK-1775","RCS_SIZE":"LARGE","SITE":"AFETR","OBJECT_TYPE":"PAYLOAD","PERIAPSIS":"546.032","TLE_LINE2":"2 46681  53.0554  19.2113 0001722  52.4039 307.7107 15.06396307 75233","REF_FRAME":"TEME","RA_OF_ASC_NODE":"19.2113","MEAN_ELEMENT_THEORY":"SGP4","NORAD_CAT_ID":"46681","APOAPSIS":"548.417","MEAN_MOTION_DDOT":"0.0000000000000","BSTAR":"0.00004914800000","EPOCH":"2022-02-27T21:49:14.967264","OBJECT_ID":"2020-073M","INCLINATION":"53.0554","DECAY_DATE":null,"FILE":"3331200","MEAN_MOTION_DOT":"0.00000450","LAUNCH_DATE":"2020-10-18","ARG_OF_PERICENTER":"52.4039"},{"TLE_LINE2":"2 46682  53.0552  19.3777 0001676  56.5240 303.5909 15.06398380 75233","RA_OF_ASC_NODE":"19.3777","REF_FRAME":"TEME","MEAN_ELEMENT_THEORY":"SGP4","NORAD_CAT_ID":"46682","OBJECT_TYPE":"PAYLOAD","PERIAPSIS":"546.058","INCLINATION":"53.0552","DECAY_DATE":null,"FILE":"3331200","MEAN_MOTION_DOT":"0.00001001","LAUNCH_DATE":"2020-10-18","ARG_OF_PERICENTER":"56.5240","APOAPSIS":"548.379","MEAN_MOTION_DDOT":"0.0000000000000","BSTAR":"0.00008610700000","OBJECT_ID":"2020-073N","EPOCH":"2022-02-27T20:50:51.288288","MEAN_ANOMALY":"303.5909","TLE_LINE1":"1 46682U 20073N   22058.86864917  .00001001  00000-0  86107-4 0  9992","ECCENTRICITY":"0.00016760","CENTER_NAME":"EARTH","PERIOD":"95.592","ELEMENT_SET_NO":"999","REV_AT_EPOCH":"7523","SEMIMAJOR_AXIS":"6925.354","GP_ID":"197286366","EPHEMERIS_TYPE":"0","MEAN_MOTION":"15.06398380","OBJECT_NAME":"STARLINK-1776","RCS_SIZE":"LARGE","SITE":"AFETR","COUNTRY_CODE":"US","CLASSIFICATION_TYPE":"U","TIME_SYSTEM":"UTC"},{"NORAD_CAT_ID":"46684","MEAN_ELEMENT_THEORY":"SGP4","REF_FRAME":"TEME","RA_OF_ASC_NODE":"4.4331","TLE_LINE2":"2 46684  53.0541   4.4331 0001830  53.6682 306.4476 15.06405213 75442","PERIAPSIS":"545.930","OBJECT_TYPE":"PAYLOAD","ARG_OF_PERICENTER":"53.6682","LAUNCH_DATE":"2020-10-18","MEAN_MOTION_DOT":"0.00004612","FILE":"3331200","DECAY_DATE":null,"INCLINATION":"53.0541","EPOCH":"2022-02-27T20:34:16.400064","OBJECT_ID":"2020-073Q","BSTAR":"0.00032824000000","MEAN_MOTION_DDOT":"0.0000000000000","APOAPSIS":"548.465","PERIOD":"95.592","ECCENTRICITY":"0.00018300","CENTER_NAME":"EARTH","TLE_LINE1":"1 46684U 20073Q   22058.85713426  .00004612  00000-0  32824-3 0  9998","MEAN_ANOMALY":"306.4476","GP_ID":"197286116","SEMIMAJOR_AXIS":"6925.333","REV_AT_EPOCH":"7544","ELEMENT_SET_NO":"999","SITE":"AFETR","RCS_SIZE":"LARGE","OBJECT_NAME":"STARLINK-1780","MEAN_MOTION":"15.06405213","EPHEMERIS_TYPE":"0","TIME_SYSTEM":"UTC","CLASSIFICATION_TYPE":"U","COUNTRY_CODE":"US"},{"MEAN_ELEMENT_THEORY":"SGP4","NORAD_CAT_ID":"46685","TLE_LINE2":"2 46685  53.0566  19.2010 0001659  56.5343 303.5804 15.06393700 75230","RA_OF_ASC_NODE":"19.2010","REF_FRAME":"TEME","OBJECT_TYPE":"PAYLOAD","PERIAPSIS":"546.084","MEAN_MOTION_DOT":"-0.00000230","LAUNCH_DATE":"2020-10-18","ARG_OF_PERICENTER":"56.5343","INCLINATION":"53.0566","DECAY_DATE":null,"FILE":"3331200","BSTAR":"0.00000348820000","EPOCH":"2022-02-27T21:54:32.974560","OBJECT_ID":"2020-073R","APOAPSIS":"548.382","MEAN_MOTION_DDOT":"0.0000000000000","PERIOD":"95.593","MEAN_ANOMALY":"303.5804","TLE_LINE1":"1 46685U 20073R   22058.91288165 -.00000230  00000-0  34882-5 0  9994","CENTER_NAME":"EARTH","ECCENTRICITY":"0.00016590","REV_AT_EPOCH":"7523","SEMIMAJOR_AXIS":"6925.368","GP_ID":"197285365","ELEMENT_SET_NO":"999","MEAN_MOTION":"15.06393700","OBJECT_NAME":"STARLINK-1781","RCS_SIZE":"LARGE","SITE":"AFETR","EPHEMERIS_TYPE":"0","TIME_SYSTEM":"UTC","COUNTRY_CODE":"US","CLASSIFICATION_TYPE":"U"}];
